STARLINK-32651          
1 62314U 24239P   26201.55451384  .00008643  00000+0  26659-3 0  9993
2 62314  53.1560 295.5337 0001325  93.5829 266.5325 15.34406007 89746
STARLINK-32627          
1 62315U 24239Q   26201.29186364  .00008334  00000+0  25750-3 0  9996
2 62315  53.1570 296.7001 0001128 102.9336 257.1793 15.34403367 89705
STARLINK-32596          
1 62316U 24239R   26201.30861496  .00008614  00000+0  26579-3 0  9996
2 62316  53.1587 296.1396 0001665  81.2959 278.8232 15.34399222 89714
STARLINK-32519          
1 62317U 24239S   26200.61886220  .00004821  00000+0  16697-3 0  9998
2 62317  53.1583 287.5743 0001115  77.2209 282.8917 15.31709373 89774
STARLINK-32527          
1 62319U 24239U   26200.62352748  .00010544  00000+0  35083-3 0  9993
2 62319  53.1606 287.6023 0000587 118.9392 241.1669 15.31721233 89773
STARLINK-32481          
1 62320U 24239V   26201.38278066  .00023153  00000+0  79104-3 0  9991
2 62320  53.1574 284.5202 0000756  81.7778 278.3309 15.30215158 89885
STARLINK-32645          
1 62321U 24239W   26201.21977597  .00011423  00000+0  34872-3 0  9999
2 62321  53.1606 284.9295 0001151  85.6422 274.4713 15.34398940 89866
STARLINK-32654          
1 62322U 24239X   26201.24137622  .00010526  00000+0  32212-3 0  9999
2 62322  53.1577 296.4291 0002068  78.0057 282.1177 15.34411257 89706
HULIANWANG DIGUI-01     
1 62323U 24240A   26201.61728330  .00000070  00000+0  12996-3 0  9995
2 62323  86.5025 331.9604 0002022 104.5762 255.5596 13.24411708 77069
HULIANWANG DIGUI-02     
1 62324U 24240B   26201.62474429  .00000064  00000+0  11598-3 0  9994
2 62324  86.5054 332.1265 0001995 104.9501 255.1855 13.24411621 77070
HULIANWANG DIGUI-03     
1 62325U 24240C   26201.60971430  .00000057  00000+0  97852-4 0  9997
2 62325  86.5007 331.8594 0002050 102.8291 257.3072 13.24410235 77060
HULIANWANG DIGUI-04     
1 62326U 24240D   26201.60217585  .00000048  00000+0  77169-4 0  9991
2 62326  86.5017 331.9059 0002170 102.0427 258.0951 13.24410517 77062
HULIANWANG DIGUI-05     
1 62327U 24240E   26201.59462055  .00000030  00000+0  36587-4 0  9994
2 62327  86.5069 332.1970 0002195  99.5921 260.5462 13.24411174 77066
HULIANWANG DIGUI-06     
1 62328U 24240F   26201.57952112  .00000023  00000+0  19553-4 0  9997
2 62328  86.5007 331.8384 0002177 106.2282 253.9092 13.24408699 77063
HULIANWANG DIGUI-07     
1 62329U 24240G   26201.57194213  .00000033  00000+0  43142-4 0  9990
2 62329  86.4977 331.6701 0002072 104.2283 255.9082 13.24411193 77067
HULIANWANG DIGUI-08     
1 62330U 24240H   26201.58706233  .00000025  00000+0  24023-4 0  9992
2 62330  86.5060 332.1457 0002267  99.3915 260.7475 13.24411485 77063
HULIANWANG DIGUI-09     
1 62331U 24240J   26201.63994285  .00000040  00000+0  59119-4 0  9996
2 62331  86.5027 331.9779 0002031 103.1211 257.0149 13.24410131 77067
HULIANWANG DIGUI-10     
1 62332U 24240K   26201.63238943  .00000054  00000+0  90691-4 0  9994
2 62332  86.5057 332.1431 0002129 105.0868 255.0501 13.24410929 77061
PIESAT-2 09             
1 62333U 24241A   26201.58575233  .00004658  00000+0  25568-3 0  9990
2 62333  97.5304 148.9109 0002366  77.4863 282.6634 15.14631166 87854
PIESAT-2 10             
1 62334U 24241B   26201.60430515  .00005240  00000+0  28683-3 0  9996
2 62334  97.5344 149.3371 0001944  93.8258 266.3196 15.14668900 87865
PIESAT-2 11             
1 62335U 24241C   26201.62228792  .00004488  00000+0  24775-3 0  9992
2 62335  97.5285 148.8041 0001973 108.3292 251.8155 15.14445925 87875
PIESAT-2 12             
1 62336U 24241D   26201.63627817  .00004338  00000+0  23886-3 0  9991
2 62336  97.5243 148.7454 0002536  97.4448 262.7072 15.14555209 87869
NAVSTAR 83 (USA 440)    
1 62339U 24242A   26200.72170847 -.00000109  00000+0  00000+0 0  9992
2 62339  54.8338 332.8621 0017996   4.3540 337.1791  2.00572353 11908
O3B MPOWER F7           
1 62362U 24244A   26201.45735936 -.00000024  00000+0  00000+0 0  9993
2 62362   0.0656 341.7897 0005927 132.6143 245.6549  5.00115365 28180
O3B MPOWER F8           
1 62363U 24244B   26201.22442198 -.00000024  00000+0  00000+0 0  9994
2 62363   0.0150  10.0115 0005698  97.2736 252.7740  5.00115056 22529
TIANQI-33               
1 62365U 24245A   26201.36681601 -.00000091  00000+0  25814-4 0  9995
2 62365  44.9818 174.3940 0006900 183.9549 176.1230 13.99216128 81001
TIANQI-34               
1 62366U 24245B   26201.35056604 -.00000072  00000+0  38680-4 0  9998
2 62366  44.9784 174.1499 0004154 203.7699 156.2942 13.99226890 80978
TIANQI-35               
1 62367U 24245C   26201.54655769 -.00000080  00000+0  33183-4 0  9999
2 62367  44.9831 173.2915 0008786 168.5636 191.5398 13.99202518 81013
TIANQI-36               
1 62368U 24245D   26201.52689252 -.00000091  00000+0  25640-4 0  9993
2 62368  44.9828 173.1613 0007533 182.1974 177.8827 13.99190700 81013
TJS-12                  
1 62374U 24246A   26201.63169722 -.00000233  00000+0  00000+0 0  9994
2 62374   0.5999 302.7599 0001916 102.9770 266.5397  1.00268210  5894
