OBJECT_NAME,OBJECT_ID,EPOCH,MEAN_MOTION,ECCENTRICITY,INCLINATION,RA_OF_ASC_NODE,ARG_OF_PERICENTER,MEAN_ANOMALY,EPHEMERIS_TYPE,CLASSIFICATION_TYPE,NORAD_CAT_ID,ELEMENT_SET_NO,REV_AT_EPOCH,BSTAR,MEAN_MOTION_DOT,MEAN_MOTION_DDOT
STARLINK-32651,2024-239P,2026-07-20T13:18:29.995776,15.34406007,.00013259,53.1560,295.5337,93.5829,266.5325,0,U,62314,999,8974,.26659473E-3,.8643E-4,0
STARLINK-32627,2024-239Q,2026-07-20T07:00:17.018496,15.34403367,.00011284,53.1570,296.7001,102.9336,257.1793,0,U,62315,999,8970,.25749509E-3,.8334E-4,0
STARLINK-32596,2024-239R,2026-07-20T07:24:24.332544,15.34399222,.0001665,53.1587,296.1396,81.2959,278.8232,0,U,62316,999,8971,.26578724E-3,.8614E-4,0
STARLINK-32519,2024-239S,2026-07-19T14:51:09.694080,15.31709373,.0001115,53.1583,287.5743,77.2209,282.8917,0,U,62317,999,8977,.16697E-3,.4821E-4,0
STARLINK-32527,2024-239U,2026-07-19T14:57:52.774272,15.31721233,.0000587,53.1606,287.6023,118.9392,241.1669,0,U,62319,999,8977,.35083E-3,.10544E-3,0
STARLINK-32481,2024-239V,2026-07-20T09:11:12.249024,15.30215158,.00007564,53.1574,284.5202,81.7778,278.3309,0,U,62320,999,8988,.79103688E-3,.23153E-3,0
STARLINK-32645,2024-239W,2026-07-20T05:16:28.643808,15.34398940,.00011513,53.1606,284.9295,85.6422,274.4713,0,U,62321,999,8986,.34871714E-3,.11423E-3,0
STARLINK-32654,2024-239X,2026-07-20T05:47:34.905408,15.34411257,.00020688,53.1577,296.4291,78.0057,282.1177,0,U,62322,999,8970,.32212205E-3,.10526E-3,0
HULIANWANG DIGUI-01,2024-240A,2026-07-20T14:48:53.277120,13.24411708,.00020222,86.5025,331.9604,104.5762,255.5596,0,U,62323,999,7706,.12995971E-3,.7E-6,0
HULIANWANG DIGUI-02,2024-240B,2026-07-20T14:59:37.906656,13.24411621,.00019951,86.5054,332.1265,104.9501,255.1855,0,U,62324,999,7707,.1159796E-3,.64E-6,0
HULIANWANG DIGUI-03,2024-240C,2026-07-20T14:37:59.315520,13.24410235,.000205,86.5007,331.8594,102.8291,257.3072,0,U,62325,999,7706,.9785228E-4,.57E-6,0
HULIANWANG DIGUI-04,2024-240D,2026-07-20T14:27:07.993440,13.24410517,.00021708,86.5017,331.9059,102.0427,258.0951,0,U,62326,999,7706,.77168992E-4,.48E-6,0
HULIANWANG DIGUI-05,2024-240E,2026-07-20T14:16:15.215520,13.24411174,.00021953,86.5069,332.1970,99.5921,260.5462,0,U,62327,999,7706,.36586837E-4,.3E-6,0
HULIANWANG DIGUI-06,2024-240F,2026-07-20T13:54:30.624768,13.24408699,.00021778,86.5007,331.8384,106.2282,253.9092,0,U,62328,999,7706,.19553284E-4,.23E-6,0
HULIANWANG DIGUI-07,2024-240G,2026-07-20T13:43:35.800032,13.24411193,.00020725,86.4977,331.6701,104.2283,255.9082,0,U,62329,999,7706,.43142132E-4,.33E-6,0
HULIANWANG DIGUI-08,2024-240H,2026-07-20T14:05:22.185312,13.24411485,.00022676,86.5060,332.1457,99.3915,260.7475,0,U,62330,999,7706,.24022577E-4,.25E-6,0
HULIANWANG DIGUI-09,2024-240J,2026-07-20T15:21:31.062240,13.24410131,.00020313,86.5027,331.9779,103.1211,257.0149,0,U,62331,999,7706,.59118993E-4,.4E-6,0
HULIANWANG DIGUI-10,2024-240K,2026-07-20T15:10:38.446752,13.24410929,.00021291,86.5057,332.1431,105.0868,255.0501,0,U,62332,999,7706,.90691413E-4,.54E-6,0
PIESAT-2 09,2024-241A,2026-07-20T14:03:29.001312,15.14631166,.00023663,97.5304,148.9109,77.4863,282.6634,0,U,62333,999,8785,.25567731E-3,.4658E-4,0
PIESAT-2 10,2024-241B,2026-07-20T14:30:11.964960,15.14668900,.00019441,97.5344,149.3371,93.8258,266.3196,0,U,62334,999,8786,.28683389E-3,.524E-4,0
PIESAT-2 11,2024-241C,2026-07-20T14:56:05.676288,15.14445925,.00019731,97.5285,148.8041,108.3292,251.8155,0,U,62335,999,8787,.24775369E-3,.4488E-4,0
PIESAT-2 12,2024-241D,2026-07-20T15:16:14.433888,15.14555209,.00025367,97.5243,148.7454,97.4448,262.7072,0,U,62336,999,8786,.238864E-3,.4338E-4,0
NAVSTAR 83 (USA 440),2024-242A,2026-07-19T17:19:15.611808,2.00572353,.00179964,54.8338,332.8621,4.3540,337.1791,0,U,62339,999,1190,0,-.109E-5,0
O3B MPOWER F7,2024-244A,2026-07-20T10:58:35.848704,5.00115365,.00059277,0.0656,341.7897,132.6143,245.6549,0,U,62362,999,2818,0,-.24E-6,0
O3B MPOWER F8,2024-244B,2026-07-20T05:23:10.059072,5.00115056,.00056989,0.0150,10.0115,97.2736,252.7740,0,U,62363,999,2252,0,-.24E-6,0
TIANQI-33,2024-245A,2026-07-20T08:48:12.903264,13.99216128,.00069,44.9818,174.3940,183.9549,176.1230,0,U,62365,999,8100,.25814062E-4,-.91E-6,0
TIANQI-34,2024-245B,2026-07-20T08:24:48.905856,13.99226890,.00041542,44.9784,174.1499,203.7699,156.2942,0,U,62366,999,8097,.38680215E-4,-.72E-6,0
TIANQI-35,2024-245C,2026-07-20T13:07:02.584416,13.99202518,.00087869,44.9831,173.2915,168.5636,191.5398,0,U,62367,999,8101,.33182793E-4,-.8E-6,0
TIANQI-36,2024-245D,2026-07-20T12:38:43.513728,13.99190700,.00075335,44.9828,173.1613,182.1974,177.8827,0,U,62368,999,8101,.25640184E-4,-.91E-6,0
TJS-12,2024-246A,2026-07-20T15:09:38.639808,1.00268210,.00019167,0.5999,302.7599,102.9770,266.5397,0,U,62374,999,589,0,-.233E-5,0
